{
  "norad_id": 57126,
  "name": "STARLINK-6167",
  "history": [
    {
      "epoch": "2026-03-28T05:14:23.622144",
      "apogee_km": 559.8761206565787,
      "perigee_km": 558.2822258686101,
      "latitude_deg": -41.59356570089115,
      "longitude_deg": -86.44041983992793,
      "semi_major_axis_km": 6937.216173262595,
      "eccentricity": 0.00011488,
      "inclination_deg": 43.0017,
      "raan_deg": 173.7013,
      "arg_perigee_deg": 275.3444,
      "mean_anomaly_deg": 84.7267,
      "mean_motion_rev_day": 15.02536117
    }
  ]
}